ONEWEB-0341             
1 49207U 21083X   26105.16323286  .00000112  00000+0  25103-3 0  9998
2 49207  87.9217 347.9933 0001477  66.6212 293.5075 13.18684523221689
ONEWEB-0342             
1 49208U 21083Y   26105.24545096  .00000025  00000+0  29696-4 0  9998
2 49208  87.9138 287.0010 0001835  89.9516 270.1828 13.20769528228478
ONEWEB-0343             
1 49209U 21083Z   26105.09561218  .00000068  00000+0  14010-3 0  9996
2 49209  87.9221 348.0027 0001828  64.7557 295.3764 13.18686378221723
ONEWEB-0344             
1 49210U 21083AA  26105.04480305 -.00000306  00000+0 -87256-3 0  9999
2 49210  87.8973 332.8230 0001491  72.4364 287.6928 13.13469074222604
ONEWEB-0345             
1 49211U 21083AB  26105.03632911 -.00000238  00000+0 -68756-3 0  9999
2 49211  87.8981 332.7961 0001496  72.4778 287.6515 13.13468750222611
ONEWEB-0346             
1 49212U 21083AC  26105.09230327  .00000058  00000+0  11549-3 0  9997
2 49212  87.9219 348.0084 0001380 102.1383 257.9904 13.18684730221667
ONEWEB-0348             
1 49213U 21083AD  26105.23597992  .00000060  00000+0  11460-3 0  9993
2 49213  87.9140 287.0062 0001269 101.3984 258.7292 13.20772788228506
ONEWEB-0350             
1 49214U 21083AE  26105.04563124 -.00000428  00000+0 -12057-2 0  9995
2 49214  87.8988 332.7938 0001441  74.8266 285.3022 13.13469592222649
ONEWEB-0351             
1 49215U 21083AF  26105.22952619 -.00000220  00000+0 -57386-3 0  9992
2 49215  87.9140 287.0059 0002232  70.8330 289.3045 13.20770984228467
ONEWEB-0352             
1 49216U 21083AG  26105.02617222 -.00000079  00000+0 -25046-3 0  9999
2 49216  87.8984 332.8126 0001981  72.8005 287.3341 13.13469604222735
ONEWEB-0354             
1 49217U 21083AH  26105.25491866 -.00000059  00000+0 -17703-3 0  9998
2 49217  87.9138 286.9997 0001471  91.7592 268.3710 13.20773016228501
ONEWEB-0355             
1 49218U 21083AJ  26105.13127028 -.00000081  00000+0 -25600-3 0  9992
2 49218  87.8972 332.7991 0001729  75.2679 284.8642 13.13469836222628
ONEWEB-0357             
1 49219U 21083AK  26105.25176147  .00000005  00000+0 -18515-4 0  9995
2 49219  87.9138 286.9950 0001824  87.3189 272.8153 13.20773040228505
ONEWEB-0332             
1 49279U 21090A   26105.26921210 -.00000120  00000+0 -35788-3 0  9998
2 49279  87.8929 302.2679 0001996  89.2141 270.9218 13.14501896219318
ONEWEB-0347             
1 49280U 21090B   26105.24229865  .00000010  00000+0 -80191-5 0  9992
2 49280  87.9136 287.0056 0002017  95.7403 264.3960 13.20772291222735
ONEWEB-0349             
1 49281U 21090C   26105.19811137  .00000038  00000+0  61232-4 0  9999
2 49281  87.9137 287.0147 0001737  92.1825 267.9507 13.20773290221516
