[{"OBJECT_NAME":"ONEWEB-0341","OBJECT_ID":"2021-083X","EPOCH":"2026-04-15T03:55:03.319104","MEAN_MOTION":13.18684523,"ECCENTRICITY":0.0001477,"INCLINATION":87.9217,"RA_OF_ASC_NODE":347.9933,"ARG_OF_PERICENTER":66.6212,"MEAN_ANOMALY":293.5075,"EPHEMERIS_TYPE":0,"CLASSIFICATION_TYPE":"U","NORAD_CAT_ID":49207,"ELEMENT_SET_NO":999,"REV_AT_EPOCH":22168,"BSTAR":0.00025102999999999996,"MEAN_MOTION_DOT":1.12e-06,"MEAN_MOTION_DDOT":0.0},{"OBJECT_NAME":"ONEWEB-0342","OBJECT_ID":"2021-083Y","EPOCH":"2026-04-15T05:53:26.962944","MEAN_MOTION":13.20769528,"ECCENTRICITY":0.0001835,"INCLINATION":87.9138,"RA_OF_ASC_NODE":287.001,"ARG_OF_PERICENTER":89.9516,"MEAN_ANOMALY":270.1828,"EPHEMERIS_TYPE":0,"CLASSIFICATION_TYPE":"U","NORAD_CAT_ID":49208,"ELEMENT_SET_NO":999,"REV_AT_EPOCH":22847,"BSTAR":2.9696e-05,"MEAN_MOTION_DOT":2.5e-07,"MEAN_MOTION_DDOT":0.0},{"OBJECT_NAME":"ONEWEB-0343","OBJECT_ID":"2021-083Z","EPOCH":"2026-04-15T02:17:40.892352","MEAN_MOTION":13.18686378,"ECCENTRICITY":0.0001828,"INCLINATION":87.9221,"RA_OF_ASC_NODE":348.0027,"ARG_OF_PERICENTER":64.7557,"MEAN_ANOMALY":295.3764,"EPHEMERIS_TYPE":0,"CLASSIFICATION_TYPE":"U","NORAD_CAT_ID":49209,"ELEMENT_SET_NO":999,"REV_AT_EPOCH":22172,"BSTAR":0.00014010000000000002,"MEAN_MOTION_DOT":6.8e-07,"MEAN_MOTION_DDOT":0.0},{"OBJECT_NAME":"ONEWEB-0344","OBJECT_ID":"2021-083AA","EPOCH":"2026-04-15T01:04:30.983520","MEAN_MOTION":13.13469074,"ECCENTRICITY":0.0001491,"INCLINATION":87.8973,"RA_OF_ASC_NODE":332.823,"ARG_OF_PERICENTER":72.4364,"MEAN_ANOMALY":287.6928,"EPHEMERIS_TYPE":0,"CLASSIFICATION_TYPE":"U","NORAD_CAT_ID":49210,"ELEMENT_SET_NO":999,"REV_AT_EPOCH":22260,"BSTAR":-0.00087256,"MEAN_MOTION_DOT":-3.06e-06,"MEAN_MOTION_DDOT":0.0},{"OBJECT_NAME":"ONEWEB-0345","OBJECT_ID":"2021-083AB","EPOCH":"2026-04-15T00:52:18.835104","MEAN_MOTION":13.1346875,"ECCENTRICITY":0.0001496,"INCLINATION":87.8981,"RA_OF_ASC_NODE":332.7961,"ARG_OF_PERICENTER":72.4778,"MEAN_ANOMALY":287.6515,"EPHEMERIS_TYPE":0,"CLASSIFICATION_TYPE":"U","NORAD_CAT_ID":49211,"ELEMENT_SET_NO":999,"REV_AT_EPOCH":22261,"BSTAR":-0.0006875599999999999,"MEAN_MOTION_DOT":-2.38e-06,"MEAN_MOTION_DDOT":0.0},{"OBJECT_NAME":"ONEWEB-0346","OBJECT_ID":"2021-083AC","EPOCH":"2026-04-15T02:12:55.002528","MEAN_MOTION":13.1868473,"ECCENTRICITY":0.000138,"INCLINATION":87.9219,"RA_OF_ASC_NODE":348.0084,"ARG_OF_PERICENTER":102.1383,"MEAN_ANOMALY":257.9904,"EPHEMERIS_TYPE":0,"CLASSIFICATION_TYPE":"U","NORAD_CAT_ID":49212,"ELEMENT_SET_NO":999,"REV_AT_EPOCH":22166,"BSTAR":0.00011549,"MEAN_MOTION_DOT":5.8e-07,"MEAN_MOTION_DDOT":0.0},{"OBJECT_NAME":"ONEWEB-0348","OBJECT_ID":"2021-083AD","EPOCH":"2026-04-15T05:39:48.665088","MEAN_MOTION":13.20772788,"ECCENTRICITY":0.0001269,"INCLINATION":87.914,"RA_OF_ASC_NODE":287.0062,"ARG_OF_PERICENTER":101.3984,"MEAN_ANOMALY":258.7292,"EPHEMERIS_TYPE":0,"CLASSIFICATION_TYPE":"U","NORAD_CAT_ID":49213,"ELEMENT_SET_NO":999,"REV_AT_EPOCH":22850,"BSTAR":0.0001146,"MEAN_MOTION_DOT":6e-07,"MEAN_MOTION_DDOT":0.0},{"OBJECT_NAME":"ONEWEB-0350","OBJECT_ID":"2021-083AE","EPOCH":"2026-04-15T01:05:42.539136","MEAN_MOTION":13.13469592,"ECCENTRICITY":0.0001441,"INCLINATION":87.8988,"RA_OF_ASC_NODE":332.7938,"ARG_OF_PERICENTER":74.8266,"MEAN_ANOMALY":285.3022,"EPHEMERIS_TYPE":0,"CLASSIFICATION_TYPE":"U","NORAD_CAT_ID":49214,"ELEMENT_SET_NO":999,"REV_AT_EPOCH":22264,"BSTAR":-0.0012057,"MEAN_MOTION_DOT":-4.28e-06,"MEAN_MOTION_DDOT":0.0},{"OBJECT_NAME":"ONEWEB-0351","OBJECT_ID":"2021-083AF","EPOCH":"2026-04-15T05:30:31.062816","MEAN_MOTION":13.20770984,"ECCENTRICITY":0.0002232,"INCLINATION":87.914,"RA_OF_ASC_NODE":287.0059,"ARG_OF_PERICENTER":70.833,"MEAN_ANOMALY":289.3045,"EPHEMERIS_TYPE":0,"CLASSIFICATION_TYPE":"U","NORAD_CAT_ID":49215,"ELEMENT_SET_NO":999,"REV_AT_EPOCH":22846,"BSTAR":-0.00057386,"MEAN_MOTION_DOT":-2.2e-06,"MEAN_MOTION_DDOT":0.0},{"OBJECT_NAME":"ONEWEB-0352","OBJECT_ID":"2021-083AG","EPOCH":"2026-04-15T00:37:41.279808","MEAN_MOTION":13.13469604,"ECCENTRICITY":0.0001981,"INCLINATION":87.8984,"RA_OF_ASC_NODE":332.8126,"ARG_OF_PERICENTER":72.8005,"MEAN_ANOMALY":287.3341,"EPHEMERIS_TYPE":0,"CLASSIFICATION_TYPE":"U","NORAD_CAT_ID":49216,"ELEMENT_SET_NO":999,"REV_AT_EPOCH":22273,"BSTAR":-0.00025046000000000004,"MEAN_MOTION_DOT":-7.9e-07,"MEAN_MOTION_DDOT":0.0},{"OBJECT_NAME":"ONEWEB-0354","OBJECT_ID":"2021-083AH","EPOCH":"2026-04-15T06:07:04.972224","MEAN_MOTION":13.20773016,"ECCENTRICITY":0.0001471,"INCLINATION":87.9138,"RA_OF_ASC_NODE":286.9997,"ARG_OF_PERICENTER":91.7592,"MEAN_ANOMALY":268.371,"EPHEMERIS_TYPE":0,"CLASSIFICATION_TYPE":"U","NORAD_CAT_ID":49217,"ELEMENT_SET_NO":999,"REV_AT_EPOCH":22850,"BSTAR":-0.00017703,"MEAN_MOTION_DOT":-5.9e-07,"MEAN_MOTION_DDOT":0.0},{"OBJECT_NAME":"ONEWEB-0355","OBJECT_ID":"2021-083AJ","EPOCH":"2026-04-15T03:09:01.752192","MEAN_MOTION":13.13469836,"ECCENTRICITY":0.0001729,"INCLINATION":87.8972,"RA_OF_ASC_NODE":332.7991,"ARG_OF_PERICENTER":75.2679,"MEAN_ANOMALY":284.8642,"EPHEMERIS_TYPE":0,"CLASSIFICATION_TYPE":"U","NORAD_CAT_ID":49218,"ELEMENT_SET_NO":999,"REV_AT_EPOCH":22262,"BSTAR":-0.000256,"MEAN_MOTION_DOT":-8.1e-07,"MEAN_MOTION_DDOT":0.0},{"OBJECT_NAME":"ONEWEB-0357","OBJECT_ID":"2021-083AK","EPOCH":"2026-04-15T06:02:32.191008","MEAN_MOTION":13.2077304,"ECCENTRICITY":0.0001824,"INCLINATION":87.9138,"RA_OF_ASC_NODE":286.995,"ARG_OF_PERICENTER":87.3189,"MEAN_ANOMALY":272.8153,"EPHEMERIS_TYPE":0,"CLASSIFICATION_TYPE":"U","NORAD_CAT_ID":49219,"ELEMENT_SET_NO":999,"REV_AT_EPOCH":22850,"BSTAR":-1.8515e-05,"MEAN_MOTION_DOT":5e-08,"MEAN_MOTION_DDOT":0.0},{"OBJECT_NAME":"ONEWEB-0332","OBJECT_ID":"2021-090A","EPOCH":"2026-04-15T06:27:39.925440","MEAN_MOTION":13.14501896,"ECCENTRICITY":0.0001996,"INCLINATION":87.8929,"RA_OF_ASC_NODE":302.2679,"ARG_OF_PERICENTER":89.2141,"MEAN_ANOMALY":270.9218,"EPHEMERIS_TYPE":0,"CLASSIFICATION_TYPE":"U","NORAD_CAT_ID":49279,"ELEMENT_SET_NO":999,"REV_AT_EPOCH":21931,"BSTAR":-0.00035788,"MEAN_MOTION_DOT":-1.2e-06,"MEAN_MOTION_DDOT":0.0},{"OBJECT_NAME":"ONEWEB-0347","OBJECT_ID":"2021-090B","EPOCH":"2026-04-15T05:48:54.603360","MEAN_MOTION":13.20772291,"ECCENTRICITY":0.0002017,"INCLINATION":87.9136,"RA_OF_ASC_NODE":287.0056,"ARG_OF_PERICENTER":95.7403,"MEAN_ANOMALY":264.396,"EPHEMERIS_TYPE":0,"CLASSIFICATION_TYPE":"U","NORAD_CAT_ID":49280,"ELEMENT_SET_NO":999,"REV_AT_EPOCH":22273,"BSTAR":-8.019100000000001e-06,"MEAN_MOTION_DOT":1e-07,"MEAN_MOTION_DDOT":0.0},{"OBJECT_NAME":"ONEWEB-0349","OBJECT_ID":"2021-090C","EPOCH":"2026-04-15T04:45:16.822368","MEAN_MOTION":13.2077329,"ECCENTRICITY":0.0001737,"INCLINATION":87.9137,"RA_OF_ASC_NODE":287.0147,"ARG_OF_PERICENTER":92.1825,"MEAN_ANOMALY":267.9507,"EPHEMERIS_TYPE":0,"CLASSIFICATION_TYPE":"U","NORAD_CAT_ID":49281,"ELEMENT_SET_NO":999,"REV_AT_EPOCH":22151,"BSTAR":6.1232e-05,"MEAN_MOTION_DOT":3.8e-07,"MEAN_MOTION_DDOT":0.0}]